IRIDIUM 171             
1 43929U 19002H   25100.73605329  .00000105  00000+0  30577-4 0  9993
2 43929  86.4043 174.5773 0002294 107.0278 253.1170 14.34217853326974
IRIDIUM 170             
1 43930U 19002J   25100.68663993  .00002236  00000+0  35069-3 0  9997
2 43930  86.6166 174.3671 0002059 103.0080 257.1367 14.72242784335622
IRIDIUM 181             
1 56726U 23068S   25101.11508298  .00000919  00000+0  26688-3 0  9999
2 56726  86.4507 237.2288 0002307 110.0186 250.1263 14.43314229100114
IRIDIUM 177             
1 56727U 23068T   25100.73991670  .00002863  00000+0  37337-3 0  9990
2 56727  86.2027 174.1255 0002154 104.8957 255.2503 14.80225048102396
IRIDIUM 174             
1 56728U 23068U   25101.83993938  .00002212  00000+0  34379-3 0  9993
2 56728  86.6160 174.0000 0002039  89.5298 270.6153 14.72647106102559
IRIDIUM 178             
1 56729U 23068V   25101.81060889  .00003549  00000+0  46359-3 0  9997
2 56729  86.6609 205.5108 0002386  98.9210 261.2282 14.80234873102551
IRIDIUM 179             
1 56730U 23068W   25101.73765418  .00000692  00000+0  87620-4 0  9993
2 56730  86.6838 213.2135 0001600  89.0812 271.0592 14.80247242102546
